VIASAT-2                
1 42740U 17029A   26064.07020973 -.00000274  00000+0  00000+0 0  9994
2 42740   0.0216 241.0889 0000570 139.0997  97.9902  1.00271692 32166
EUTELSAT 172B           
1 42741U 17029B   26065.25908203 -.00000011  00000+0  00000+0 0  9996
2 42741   0.0215 149.3377 0000070 237.4333  42.4604  1.00272690 32703
GSAT-19                 
1 42747U 17031A   26065.24350596  .00000120  00000+0  00000+0 0  9990
2 42747   0.0152 112.9970 0004597 271.6694 274.8170  1.00273007 32119
ECHOSTAR 21             
1 42749U 17032A   26065.22701522  .00000061  00000+0  00000+0 0  9994
2 42749   1.7927 348.9522 0002618 344.2849 282.6766  1.00273216 32068
ZHONGXING-9A            
1 42763U 17035A   26065.03340105 -.00000304  00000+0  00000+0 0  9999
2 42763   4.7196  76.5090 0006059 277.2003 294.8657  0.99783804 32621
BULGARIASAT-1           
1 42801U 17038A   26064.22699044  .00000002  00000+0  00000+0 0  9998
2 42801   0.0411 260.2440 0003287 111.8912 234.4197  1.00271539 31792
HELLAS-SAT 3            
1 42814U 17040A   26065.22669632  .00000147  00000+0  00000+0 0  9996
2 42814   0.0571  33.3976 0004991 325.1978 285.9569  1.00269617 31777
GSAT-17                 
1 42815U 17040B   26064.31634419 -.00000266  00000+0  00000+0 0  9994
2 42815   0.0381 296.1388 0004948 351.8585  82.4276  1.00269840 31745
INTELSAT 35E (IS-35E)   
1 42818U 17041A   26064.17683490 -.00000247  00000+0  00000+0 0  9994
2 42818   0.0257 241.7413 0002225 103.6087 206.6952  1.00270890 31772
COSMOS 2520             
1 42907U 17046A   26063.78725220  .00000126  00000+0  00000+0 0  9997
2 42907   0.0284 103.8318 0000786  15.3936  11.7225  1.00275063 31354
TDRS 13                 
1 42915U 17047A   26065.20155875 -.00000104  00000+0  00000+0 0  9996
2 42915   3.4298   0.1090 0010438  98.7322 126.1699  1.00272313 31317
QZS-3 (MICHIBIKI-3)     
1 42917U 17048A   26065.24072523 -.00000353  00000+0  00000+0 0  9997
2 42917   0.0688 213.6075 0002286 145.5938  18.4220  1.00275459 31222
AMAZONAS 5              
1 42934U 17053A   26063.15044815  .00000000  00000+0  00000+0 0  9991
2 42934   0.0068 291.1162 0005421  42.1232 181.8425  1.00267618 30997
ASIASAT 9               
1 42942U 17057A   26065.03655888 -.00000365  00000+0  00000+0 0  9996
2 42942   0.0126 138.4043 0002075 195.1154 325.5022  1.00269276 30820
INTELSAT 37E (IS-37E)   
1 42950U 17059A   26065.20155875 -.00000146  00000+0  00000+0 0  9994
2 42950   0.0201 142.8040 0002150 206.2734 229.3941  1.00271680 31038
BSAT-4A                 
1 42951U 17059B   26065.03288104  .00000000  00000+0  00000+0 0  9996
2 42951   0.0161   1.0556 0004279  27.2131 257.1965  1.00268651 30766
SES-11 (ECHOSTAR 105)   
1 42967U 17063A   26064.20584368 -.00000098  00000+0  00000+0 0  9995
2 42967   0.0386  71.4662 0002895 270.8534 149.7752  1.00272288 30688
